{"type":"FeatureCollection","name":"germany_1_to_5M","crs":{"type":"name","properties":{"name":"urn:ogc:def:crs:OGC:1.3:CRS84"}},"features":[{"id":null,"type":"Feature","properties":{"warnLevel":0},"geometry":{"type":"Polygon","coordinates":[[[10.452861,47.555279],[10.431568,47.503721],[10.440221,47.486691],[10.468128,47.476856],[10.46609,47.453522],[10.475836,47.433283],[10.437635,47.412982],[10.429487,47.390921],[10.435467,47.380494],[10.420104,47.384536],[10.389249,47.370269],[10.386133,47.356548],[10.356959,47.336983],[10.348469,47.317289],[10.330175,47.304901],[10.314837,47.306277],[10.231968,47.270683],[10.201197,47.276379],[10.174006,47.270362],[10.178269,47.295061],[10.199181,47.297771],[10.215238,47.311675],[10.200587,47.327536],[10.236918,47.373492],[10.23587,47.381764],[10.227312,47.389037],[10.2126,47.379997],[10.182535,47.392581],[10.16972,47.385885],[10.165852,47.368939],[10.143279,47.367016],[10.11936,47.37546],[10.099792,47.354753],[10.08301,47.393618],[10.085797,47.398947],[10.069537,47.409503],[10.095147,47.417562],[10.105267,47.428362],[10.093362,47.441696],[10.090907,47.460096],[10.069904,47.456062],[10.057336,47.465695],[10.044541,47.487413],[10.009918,47.482006],[9.995031,47.48617],[9.9878,47.498553],[9.99567,47.502957],[9.965195,47.520718],[9.970741,47.544763],[9.959659,47.543109],[9.958255,47.535106],[9.940978,47.5381],[9.921354,47.530063],[9.909087,47.538674],[9.878957,47.546636],[9.873918,47.528542],[9.85059,47.541155],[9.815855,47.54751],[9.825757,47.560098],[9.824056,47.586685],[9.801073,47.59549],[9.783172,47.593857],[9.757092,47.578641],[9.7442,47.556948],[9.729583,47.533689],[9.68036,47.523358],[9.632641,47.530629],[9.593555,47.536585],[9.55872,47.541893],[9.495604,47.551455],[9.463355,47.573469],[9.434335,47.593279],[9.394714,47.620326],[9.36107,47.629673],[9.306944,47.64471],[9.282162,47.651595],[9.256561,47.658708],[9.214832,47.655096],[9.203041,47.655329],[9.187102,47.657451],[9.180247,47.655538],[9.169145,47.655825],[9.152239,47.667085],[9.131554,47.665467],[9.102183,47.6737],[9.089378,47.67729],[9.017809,47.68433],[8.958399,47.661773],[8.940327,47.654911],[8.897693,47.647434],[8.877578,47.651218],[8.875706,47.656101],[8.867937,47.676352],[8.849715,47.681281],[8.850545,47.697193],[8.873847,47.694184],[8.871366,47.704663],[8.848231,47.703407],[8.845447,47.711436],[8.825702,47.711125],[8.805212,47.724888],[8.811891,47.728872],[8.807111,47.737374],[8.79653,47.734674],[8.797001,47.729119],[8.770123,47.71815],[8.769359,47.707225],[8.797741,47.702881],[8.797795,47.697553],[8.80696,47.697297],[8.807897,47.691119],[8.798703,47.690454],[8.796163,47.675892],[8.729054,47.692802],[8.736542,47.716281],[8.717826,47.721531],[8.711534,47.729411],[8.722151,47.744327],[8.739227,47.746474],[8.740026,47.752878],[8.714503,47.765372],[8.691705,47.757274],[8.688447,47.773446],[8.681228,47.786289],[8.659514,47.791625],[8.652374,47.799568],[8.645448,47.788186],[8.652045,47.772997],[8.627609,47.759707],[8.616565,47.78405],[8.622258,47.794274],[8.613819,47.801156],[8.577711,47.799474],[8.56808,47.807943],[8.561913,47.792649],[8.574457,47.789473],[8.57704,47.781689],[8.563024,47.77788],[8.552661,47.784322],[8.526092,47.777893],[8.52046,47.770293],[8.510345,47.775772],[8.49114,47.771492],[8.450478,47.740222],[8.455019,47.72221],[8.42116,47.709307],[8.406146,47.69548],[8.413159,47.689168],[8.419513,47.682596],[8.407282,47.675779],[8.414444,47.666385],[8.44623,47.654139],[8.465244,47.655539],[8.470531,47.639506],[8.478555,47.648511],[8.493928,47.643269],[8.531949,47.647125],[8.526582,47.660423],[8.532505,47.662742],[8.561822,47.670096],[8.57721,47.662175],[8.603042,47.672006],[8.627678,47.653033],[8.622728,47.640219],[8.610528,47.637192],[8.612878,47.649228],[8.603303,47.650958],[8.594781,47.64189],[8.604848,47.613688],[8.582342,47.596125],[8.562565,47.600286],[8.573243,47.611461],[8.552383,47.62697],[8.539046,47.625676],[8.538725,47.630916],[8.515971,47.633272],[8.507789,47.617104],[8.487158,47.61409],[8.456738,47.602214],[8.467209,47.583749],[8.488967,47.588433],[8.487228,47.577902],[8.433715,47.56647],[8.398752,47.577008],[8.38379,47.566156],[8.35565,47.569976],[8.323117,47.573515],[8.297181,47.589829],[8.292473,47.609141],[8.264176,47.609867],[8.258721,47.61596],[8.225288,47.605386],[8.216801,47.618761],[8.202217,47.620228],[8.190842,47.612811],[8.165172,47.594345],[8.149784,47.595425],[8.134927,47.583946],[8.108187,47.582659],[8.091943,47.559474],[8.06727,47.564292],[8.037419,47.55283],[8.019495,47.550633],[7.999298,47.556409],[7.958902,47.557863],[7.945012,47.544375],[7.91781,47.548101],[7.907965,47.556101],[7.906507,47.57712],[7.89486,47.585701],[7.865513,47.588284],[7.842339,47.581974],[7.832782,47.585732],[7.818814,47.586485],[7.811218,47.569402],[7.79483,47.557316],[7.724066,47.542412],[7.681095,47.533498],[7.648236,47.548987],[7.634014,47.560941],[7.637779,47.565464],[7.647973,47.560292],[7.685629,47.565798],[7.68918,47.571375],[7.671993,47.584657],[7.675326,47.592386],[7.649298,47.595837],[7.619275,47.577339],[7.608608,47.57818],[7.589193,47.589729],[7.591732,47.603592],[7.574405,47.615375],[7.566541,47.632114],[7.520491,47.662789],[7.513843,47.703141],[7.543279,47.723856],[7.549191,47.743876],[7.529992,47.778478],[7.56194,47.841294],[7.556322,47.878894],[7.581108,47.89798],[7.584097,47.932556],[7.613147,47.958149],[7.621836,47.972163],[7.615494,47.991525],[7.568728,48.034992],[7.573857,48.090967],[7.577624,48.11525],[7.579896,48.12428],[7.599288,48.136094],[7.600304,48.156489],[7.611357,48.167586],[7.637098,48.195776],[7.668316,48.224819],[7.681272,48.256901],[7.693205,48.301957],[7.736426,48.31816],[7.742568,48.322863],[7.745747,48.333315],[7.73109,48.388055],[7.742571,48.415182],[7.753424,48.433989],[7.766557,48.46001],[7.768665,48.489845],[7.79445,48.501834],[7.806564,48.519342],[7.800403,48.584959],[7.837242,48.637797],[7.889802,48.662306],[7.958046,48.718455],[7.967409,48.728243],[7.968883,48.753228],[7.978033,48.760212],[8.012883,48.759792],[8.030217,48.786408],[8.06566,48.789168],[8.084353,48.79866],[8.107667,48.826415],[8.116781,48.851588],[8.159269,48.914797],[8.170762,48.925709],[8.188775,48.945984],[8.200367,48.958209],[8.232633,48.966275],[8.227754,48.971625],[8.217233,48.975508],[8.199706,48.966933],[8.195413,48.976724],[8.160575,48.97551],[8.066534,48.996384],[8.041974,49.015289],[8.01718,49.020932],[7.996068,49.028822],[7.976507,49.026546],[7.962967,49.042544],[7.931647,49.057707],[7.922724,49.04348],[7.913819,49.040269],[7.907335,49.044771],[7.888872,49.047708],[7.867636,49.033125],[7.814909,49.055316],[7.809914,49.061329],[7.790528,49.063359],[7.771607,49.051134],[7.766471,49.046123],[7.736639,49.044148],[7.731519,49.055848],[7.722029,49.051787],[7.69599,49.057546],[7.697621,49.049747],[7.675636,49.045171],[7.651168,49.050649],[7.631667,49.055123],[7.630821,49.072824],[7.605892,49.081391],[7.560768,49.081141],[7.529277,49.09717],[7.530282,49.103089],[7.522437,49.110271],[7.489719,49.136217],[7.497239,49.14589],[7.506337,49.154721],[7.495963,49.155362],[7.488571,49.170509],[7.45977,49.162299],[7.437534,49.167147],[7.438904,49.182222],[7.410672,49.179312],[7.381294,49.175168],[7.364682,49.171742],[7.363507,49.157728],[7.361467,49.14332],[7.329853,49.144717],[7.309826,49.129851],[7.2932,49.11498],[7.283117,49.116653],[7.284939,49.122657],[7.245046,49.130003],[7.20682,49.123393],[7.198196,49.115117],[7.185478,49.130473],[7.164258,49.127077],[7.158922,49.120921],[7.133852,49.130254],[7.126219,49.1411],[7.106759,49.139134],[7.112195,49.151815],[7.101193,49.155452],[7.081132,49.148872],[7.087811,49.129374],[7.071939,49.124693],[7.065428,49.113832],[7.049512,49.114468],[7.029459,49.176722],[7.034974,49.191388],[7.010965,49.18787],[6.988998,49.201336],[6.977394,49.20845],[6.963971,49.201634],[6.938459,49.222332],[6.918328,49.222916],[6.893252,49.209126],[6.860045,49.222534],[6.838208,49.212989],[6.861652,49.182186],[6.859056,49.174726],[6.844771,49.17273],[6.846077,49.158228],[6.831309,49.151999],[6.79028,49.165787],[6.738736,49.163834],[6.720705,49.175369],[6.711682,49.188259],[6.731311,49.206087],[6.721556,49.220182],[6.695742,49.21574],[6.689527,49.220951],[6.690491,49.247861],[6.675997,49.257114],[6.663853,49.254601],[6.66056,49.260514],[6.669767,49.2802],[6.653635,49.281192],[6.639362,49.295187],[6.615297,49.301536],[6.588786,49.321776],[6.595137,49.329933],[6.580936,49.334547],[6.563073,49.355876],[6.574088,49.358612],[6.588884,49.350182],[6.601587,49.36609],[6.594162,49.3714],[6.583114,49.368674],[6.586784,49.384557],[6.563374,49.388173],[6.540326,49.401408],[6.538869,49.41169],[6.557481,49.419235],[6.505141,49.447019],[6.484413,49.451897],[6.466692,49.464751],[6.440391,49.466329],[6.428546,49.47638],[6.397581,49.46468],[6.367586,49.469296],[6.367373,49.503473],[6.356799,49.53035],[6.379942,49.550939],[6.381771,49.558322],[6.358422,49.572182],[6.367762,49.578092],[6.381317,49.577091],[6.375019,49.591296],[6.382776,49.595468],[6.392042,49.600449],[6.422576,49.622431],[6.439408,49.652644],[6.435247,49.660814],[6.426316,49.664562],[6.449152,49.679998],[6.460266,49.690971],[6.478637,49.695959],[6.506615,49.713149],[6.495347,49.72101],[6.501481,49.726106],[6.511398,49.721763],[6.516231,49.727439],[6.502789,49.733898],[6.501557,49.751884],[6.517885,49.761991],[6.511347,49.774771],[6.516861,49.782533],[6.506855,49.790164],[6.529874,49.805916],[6.521524,49.812294],[6.51129,49.802524],[6.475519,49.821845],[6.457348,49.813275],[6.430771,49.811311],[6.400041,49.819783],[6.393231,49.82792],[6.363728,49.850772],[6.343681,49.849725],[6.336383,49.839185],[6.325788,49.837345],[6.321827,49.853077],[6.312828,49.868985],[6.296659,49.866892],[6.287482,49.874841],[6.258917,49.883756],[6.246031,49.895414],[6.233407,49.900826],[6.227835,49.910025],[6.233511,49.914411],[6.220022,49.923926],[6.226029,49.929451],[6.217994,49.944686],[6.22322,49.950015],[6.211198,49.950105],[6.206941,49.957241],[6.198546,49.948918],[6.193595,49.967111],[6.184342,49.963321],[6.185672,49.954866],[6.179527,49.953777],[6.171566,49.963169],[6.165536,49.971279],[6.171465,49.98259],[6.153509,49.990414],[6.140299,49.995629],[6.149008,50.006597],[6.13804,50.012193],[6.133374,50.016138],[6.146424,50.022924],[6.132918,50.031024],[6.133905,50.04231],[6.113383,50.06268],[6.129208,50.073],[6.117042,50.074164],[6.121111,50.092527],[6.133557,50.093833],[6.125897,50.100606],[6.135931,50.103928],[6.129363,50.119158],[6.138038,50.131835],[6.150398,50.137207],[6.153074,50.150026],[6.141098,50.147253],[6.133569,50.154799],[6.146936,50.158625],[6.141077,50.167226],[6.14734,50.178424],[6.160312,50.172293],[6.162487,50.178089],[6.190965,50.182569],[6.184285,50.192803],[6.188001,50.205588],[6.167615,50.222952],[6.177679,50.227037],[6.177066,50.235252],[6.198108,50.237793],[6.208843,50.253535],[6.221787,50.25721],[6.226767,50.259477],[6.272273,50.266643],[6.278241,50.266397],[6.292903,50.278859],[6.28669,50.293907],[6.297389,50.309097],[6.308197,50.310205],[6.306208,50.319252],[6.333209,50.323174],[6.358535,50.307012],[6.359022,50.312826],[6.374434,50.312804],[6.383001,50.322007],[6.403892,50.323268],[6.403675,50.335181],[6.342979,50.381901],[6.369005,50.41035],[6.373212,50.45328],[6.340301,50.462287],[6.340868,50.482568],[6.350645,50.488498],[6.315421,50.496974],[6.268623,50.50388],[6.261558,50.498871],[6.251407,50.504075],[6.22654,50.494882],[6.206465,50.521188],[6.192651,50.521235],[6.187702,50.527079],[6.191778,50.530756],[6.197415,50.531109],[6.19987,50.534942],[6.178783,50.541599],[6.175039,50.558079],[6.203208,50.569803],[6.225948,50.590738],[6.242422,50.587246],[6.246231,50.601996],[6.26251,50.611299],[6.270693,50.626286],[6.255781,50.625645],[6.233709,50.624535],[6.196861,50.632374],[6.183232,50.623021],[6.175302,50.627253],[6.182035,50.633259],[6.166629,50.643839],[6.184139,50.647468],[6.165625,50.662288],[6.111825,50.722911],[6.073234,50.720927],[6.046316,50.727871],[6.039165,50.718446],[6.033629,50.728067],[6.039892,50.745427],[6.021512,50.753371],[6.018925,50.761942],[6.027839,50.773609],[5.97448,50.797949],[5.985541,50.810469],[6.003569,50.801317],[6.024752,50.814162],[6.020765,50.846117],[6.056336,50.856048],[6.058056,50.851021],[6.074039,50.846458],[6.088137,50.872991],[6.07527,50.892322],[6.087029,50.913763],[6.093994,50.921653],[6.054107,50.922387],[6.049662,50.929329],[6.018646,50.935023],[6.015606,50.947878],[6.004387,50.957443],[6.025056,50.98364],[5.967852,50.979208],[5.957089,50.984999],[5.933738,50.985149],[5.897556,50.974988],[5.893104,50.980563],[5.904137,50.987256],[5.905019,51.002274],[5.879577,51.017413],[5.87789,51.036467],[5.865999,51.051131],[5.892477,51.053398],[5.913346,51.066527],[5.937466,51.035057],[5.958216,51.035011],[5.968498,51.047689],[5.971426,51.060883],[5.994191,51.081245],[6.052161,51.105941],[6.060423,51.115794],[6.080685,51.12226],[6.091034,51.134936],[6.154601,51.148051],[6.175745,51.158627],[6.139017,51.173125],[6.175016,51.184476],[6.180077,51.18679],[6.165748,51.194137],[6.100505,51.170581],[6.082083,51.172058],[6.067611,51.220354],[6.086066,51.223233],[6.082854,51.227546],[6.07194,51.242231],[6.123841,51.274396],[6.153834,51.307544],[6.170666,51.333025],[6.191452,51.335419],[6.22427,51.365659],[6.215,51.387734],[6.226522,51.399662],[6.206026,51.400537],[6.223555,51.46946],[6.218013,51.485083],[6.200934,51.526768],[6.177307,51.538694],[6.157445,51.566342],[6.091791,51.606002],[6.094147,51.616103],[6.117942,51.656021],[6.031322,51.676613],[6.026584,51.707807],[6.046477,51.716084],[6.032484,51.724154],[5.99285,51.738413],[5.955317,51.738626],[5.952832,51.748977],[5.989971,51.766104],[5.98301,51.773702],[5.990448,51.782511],[5.974369,51.785809],[5.977024,51.797123],[5.945323,51.814682],[5.958716,51.817449],[5.946135,51.824591],[5.963567,51.836625],[5.991764,51.831022],[6.037046,51.843961],[6.055522,51.852734],[6.063661,51.865376],[6.099139,51.849088],[6.166269,51.8409],[6.164722,51.860335],[6.146519,51.868202],[6.137447,51.885684],[6.105755,51.892508],[6.117667,51.901437],[6.153171,51.903832],[6.191262,51.891579],[6.185958,51.884286],[6.211832,51.870878],[6.260263,51.86814],[6.278713,51.874159],[6.299317,51.867637],[6.307144,51.848569],[6.349359,51.850361],[6.364462,51.837382],[6.388794,51.832752],[6.407802,51.828489],[6.402934,51.844926],[6.409593,51.85257],[6.39181,51.861001],[6.390281,51.874057],[6.428,51.865528],[6.433448,51.859454],[6.451606,51.865183],[6.470891,51.854128],[6.54503,51.885053],[6.560753,51.882847],[6.67333,51.915515],[6.694588,51.915775],[6.72133,51.896344],[6.743563,51.905841],[6.753891,51.912508],[6.789113,51.929537],[6.798753,51.958911],[6.82829,51.964483],[6.82798,51.99372],[6.808057,51.995253],[6.752582,52.028492],[6.715447,52.0399],[6.68757,52.04002],[6.686647,52.053933],[6.695327,52.070955],[6.734877,52.075155],[6.748373,52.083561],[6.743109,52.092915],[6.754314,52.094798],[6.760108,52.118819],[6.855104,52.12057],[6.867323,52.127756],[6.880865,52.156069],[6.906591,52.175369],[6.951167,52.181078],[6.987865,52.226995],[7.039043,52.227892],[7.063741,52.24129],[7.029285,52.273151],[7.026323,52.289119],[7.074848,52.368656],[7.05899,52.398346],[7.035111,52.40262],[7.010821,52.429566],[6.998915,52.4561],[6.987854,52.469169],[6.977869,52.464916],[6.955306,52.442222],[6.941552,52.435239],[6.852381,52.450335],[6.854129,52.459653],[6.775372,52.459626],[6.744467,52.467463],[6.72075,52.477115],[6.697739,52.486472],[6.70011,52.497488],[6.702706,52.509339],[6.705123,52.520536],[6.681456,52.551935],[6.715564,52.548967],[6.725354,52.563204],[6.768802,52.561802],[6.71875,52.589092],[6.726518,52.61496],[6.711137,52.628354],[6.759771,52.649282],[6.787949,52.652933],[6.81866,52.648192],[6.893408,52.651545],[6.919002,52.640279],[6.951537,52.639268],[6.976185,52.645724],[7.005416,52.638714],[7.040665,52.632968],[7.054262,52.643907],[7.063512,52.722809],[7.07169,52.810855],[7.092378,52.83808],[7.087276,52.850727],[7.119211,52.878999],[7.153299,52.913125],[7.181121,52.940932],[7.208634,53.000218],[7.21604,53.007167],[7.198935,53.081186],[7.202629,53.113023],[7.185106,53.121349],[7.180601,53.138116],[7.201645,53.173525],[7.230756,53.177978],[7.208991,53.189082],[7.217914,53.200029],[7.208754,53.244283],[7.227816,53.259063],[7.236189,53.287402],[7.229072,53.293276],[7.2443,53.318826],[7.249711,53.324898],[7.264325,53.325599],[7.256766,53.330096],[7.180143,53.334597],[7.027706,53.336246],[6.998629,53.36028],[6.997642,53.371724],[7.010613,53.385328],[7.009782,53.424576],[7.024534,53.482887],[7.0481,53.5073],[7.032272,53.529579],[7.033326,53.545064],[7.064942,53.523175],[7.077292,53.532708],[7.097612,53.512545],[7.10052,53.524463],[7.122993,53.525899],[7.137356,53.536421],[7.087108,53.570258],[7.089797,53.580344],[7.144114,53.611155],[7.15538,53.629162],[7.166521,53.627187],[7.181306,53.640644],[7.241736,53.668279],[7.317394,53.683381],[7.480504,53.683328],[7.513821,53.671933],[7.554065,53.674737],[7.609485,53.687369],[7.703775,53.703162],[7.741598,53.700027],[7.811398,53.711643],[7.911395,53.718645],[8.028936,53.70757],[8.021054,53.684165],[8.04328,53.641214],[8.071691,53.647744],[8.090946,53.63825],[8.122753,53.598362],[8.148821,53.602194],[8.156457,53.584769],[8.139941,53.580894],[8.168808,53.545212],[8.172203,53.535779],[8.157945,53.516234],[8.091129,53.501878],[8.061238,53.505452],[8.064829,53.473638],[8.06933,53.466839],[8.098418,53.445384],[8.121259,53.452157],[8.149843,53.449433],[8.196426,53.408172],[8.234836,53.398068],[8.258762,53.401474],[8.28036,53.414093],[8.2976,53.431917],[8.296455,53.442137],[8.31296,53.454093],[8.315927,53.500386],[8.31487,53.51535],[8.302897,53.524613],[8.266103,53.518046],[8.229944,53.5201],[8.241266,53.58109],[8.260972,53.599554],[8.287754,53.611749],[8.308036,53.617261],[8.333349,53.612898],[8.395525,53.569872],[8.474628,53.553714],[8.50354,53.551098],[8.51821,53.559155],[8.518292,53.548999],[8.550415,53.537735],[8.554806,53.525507],[8.54534,53.520944],[8.55255,53.515512],[8.561791,53.511502],[8.579806,53.533488],[8.562482,53.549098],[8.523278,53.592019],[8.509902,53.603085],[8.518493,53.605928],[8.508829,53.623296],[8.484778,53.655701],[8.482531,53.693513],[8.521468,53.750566],[8.551137,53.822648],[8.565257,53.845573],[8.575336,53.844444],[8.599602,53.87369],[8.614309,53.882028],[8.673254,53.892253],[8.687296,53.891874],[8.688396,53.880083],[8.70369,53.879109],[8.727872,53.858441],[8.783972,53.834757],[8.830538,53.833142],[8.893756,53.82909],[8.959085,53.837534],[8.980382,53.840288],[9.01821,53.834958],[9.012845,53.840812],[9.087955,53.861458],[9.175214,53.863478],[9.254296,53.85983],[9.277177,53.856347],[9.331831,53.816532],[9.354359,53.789732],[9.403507,53.737705],[9.485653,53.680062],[9.540953,53.613917],[9.584697,53.588112],[9.605817,53.58177],[9.634594,53.571818],[9.676459,53.547186],[9.766874,53.541676],[9.814975,53.530176],[9.826171,53.533778],[9.8112,53.541037],[9.818286,53.54549],[9.823055,53.556781],[9.735944,53.566903],[9.698548,53.57099],[9.646054,53.588018],[9.562819,53.617743],[9.548128,53.63524],[9.53703,53.654546],[9.549486,53.659028],[9.548035,53.674873],[9.517797,53.714284],[9.504616,53.719436],[9.457551,53.731342],[9.430225,53.755916],[9.403908,53.801262],[9.394681,53.821898],[9.345374,53.844573],[9.326092,53.859864],[9.273519,53.876112],[9.229245,53.886476],[9.198258,53.888967],[9.093705,53.8881],[9.030977,53.900796],[9.018481,53.896131],[8.978031,53.890953],[8.95519,53.898946],[8.942653,53.911288],[8.915512,53.925662],[8.893535,53.952274],[8.852234,54.008962],[8.832331,54.023567],[8.803554,54.023996],[8.834792,54.028603],[8.845517,54.038646],[8.878765,54.04582],[8.946154,54.034108],[8.961202,54.035355],[8.978468,54.043454],[8.984027,54.054509],[8.984226,54.062074],[8.958615,54.063423],[8.97768,54.069316],[8.952594,54.087485],[8.947527,54.093657],[8.928154,54.128826],[8.908402,54.134424],[8.8868,54.130388],[8.857872,54.118482],[8.825044,54.145248],[8.816377,54.166609],[8.806438,54.176455],[8.81882,54.205091],[8.833875,54.216129],[8.832464,54.239903],[8.845524,54.266383],[8.837569,54.282445],[8.822151,54.290511],[8.782919,54.280282],[8.770288,54.281411],[8.767583,54.288361],[8.738384,54.293709],[8.72216,54.288733],[8.706494,54.292956],[8.699025,54.282762],[8.674831,54.278496],[8.609529,54.307989],[8.598793,54.321533],[8.599214,54.32868],[8.607135,54.328871],[8.603068,54.340594],[8.643503,54.338251],[8.6583,54.348895],[8.691482,54.355197],[8.693343,54.367617],[8.689941,54.373523],[8.658421,54.374251],[8.649252,54.381041],[8.672451,54.399521],[8.699445,54.396984],[8.800923,54.408351],[8.832203,54.408957],[8.852326,54.403303],[8.876893,54.407435],[8.912343,54.417055],[8.931229,54.431304],[8.949784,54.438662],[8.955786,54.450921],[9.003892,54.462836],[9.015583,54.475166],[9.002832,54.47953],[9.012969,54.482605],[9.010006,54.497581],[8.991731,54.518895],[8.987833,54.524797],[8.94591,54.512063],[8.948371,54.500358],[8.914366,54.470512],[8.890416,54.459227],[8.843565,54.459959],[8.805683,54.470393],[8.816956,54.486383],[8.805454,54.499555],[8.853855,54.516931],[8.863266,54.52359],[8.876632,54.542743],[8.87336,54.553646],[8.869149,54.565228],[8.893572,54.599872],[8.887438,54.609553],[8.849299,54.624683],[8.832757,54.651668],[8.779802,54.665621],[8.753367,54.682245],[8.741477,54.71649],[8.719059,54.72528],[8.692295,54.723681],[8.687119,54.729424],[8.714685,54.737819],[8.697461,54.759527],[8.70211,54.772931],[8.682529,54.792424],[8.659785,54.795835],[8.64502,54.819402],[8.609572,54.840895],[8.614247,54.876714],[8.613534,54.886843],[8.63723,54.894949],[8.638076,54.911243],[8.681285,54.91051],[8.733853,54.89319],[8.776682,54.893615],[8.799977,54.904069],[8.833984,54.906654],[8.849034,54.897345],[8.879642,54.901978],[8.946177,54.902254],[8.972662,54.896704],[9.03638,54.875667],[9.076355,54.871392],[9.113207,54.874314],[9.174428,54.866048],[9.187809,54.861686],[9.239687,54.849988],[9.235874,54.830764],[9.245357,54.816871],[9.250171,54.809815],[9.270473,54.812202],[9.345782,54.801483],[9.355231,54.81415],[9.372306,54.820118],[9.383731,54.838921],[9.409829,54.842853],[9.424044,54.825322],[9.436293,54.810215],[9.429485,54.801633],[9.435742,54.792547],[9.464209,54.822371],[9.492341,54.822318],[9.511699,54.836622],[9.584589,54.865208],[9.589396,54.876791],[9.61415,54.875521],[9.590003,54.852891],[9.604549,54.830875],[9.634407,54.828451],[9.665859,54.822323],[9.727427,54.806559],[9.768767,54.797136],[9.792818,54.797268],[9.834223,54.759511],[9.873302,54.752174],[9.891232,54.769931],[9.90423,54.762813],[9.906305,54.768737],[9.900444,54.773806],[9.909819,54.799596],[9.958207,54.778544],[9.964216,54.769855],[9.977851,54.751605],[9.983705,54.72563],[9.989974,54.717471],[10.036807,54.688254],[10.035633,54.676556],[10.033373,54.66307],[10.031904,54.636167],[10.027922,54.605895],[10.026943,54.595515],[10.026421,54.568364],[10.026562,54.550068],[9.999246,54.522306],[9.963844,54.502708],[9.918305,54.489471],[9.875163,54.475539],[9.837237,54.475804],[9.863507,54.448701],[9.914075,54.452661],[9.935506,54.463156],[10.027422,54.475391],[10.127455,54.484794],[10.159297,54.474758],[10.199112,54.455056],[10.169014,54.432779],[10.188855,54.411569],[10.192644,54.390243],[10.161493,54.385395],[10.167049,54.377757],[10.154097,54.368511],[10.14471,54.369365],[10.142278,54.353107],[10.157309,54.339213],[10.140876,54.318038],[10.176958,54.329339],[10.1669,54.335557],[10.175087,54.338734],[10.174091,54.34573],[10.177955,54.355105],[10.179193,54.361659],[10.196141,54.366464],[10.193734,54.379657],[10.210193,54.393073],[10.227506,54.414194],[10.24095,54.415844],[10.2807,54.419987],[10.302718,54.433355],[10.353878,54.432375],[10.39378,54.424954],[10.422426,54.411518],[10.444802,54.403112],[10.482832,54.389329],[10.541142,54.379573],[10.596892,54.36472],[10.641063,54.346155],[10.646204,54.337],[10.679185,54.322067],[10.679561,54.316693],[10.696621,54.306001],[10.716875,54.30551],[10.736871,54.310214],[10.762434,54.307057],[10.79881,54.316143],[10.841779,54.339145],[10.868026,54.357342],[10.904083,54.366461],[10.921985,54.37785],[10.94934,54.384668],[11.020579,54.381008],[11.018894,54.376176],[10.990128,54.373937],[11.021713,54.368166],[11.071758,54.376113],[11.091555,54.39201],[11.109576,54.396196],[11.110459,54.389233],[11.11958,54.393769],[11.131478,54.387469],[11.126163,54.374269],[11.081985,54.352967],[11.069052,54.358241],[11.060235,54.355493],[11.063075,54.34406],[11.073509,54.346232],[11.076901,54.30194],[11.084799,54.276438],[11.082756,54.246453],[11.094285,54.198961],[11.078448,54.19578],[11.047342,54.176882],[10.944208,54.133469],[10.898712,54.100958],[10.864634,54.084465],[10.819064,54.090257],[10.812985,54.102415],[10.799976,54.094055],[10.800429,54.084052],[10.75483,54.052575],[10.752237,54.037141],[10.773428,54.010071],[10.798778,53.993244],[10.843557,53.992634],[10.868085,53.992723],[10.88464,53.980946],[10.885158,53.95865],[10.903374,53.957047],[10.978923,53.986485],[11.039965,54.00622],[11.09123,54.014108],[11.120974,54.011305],[11.146218,54.009596],[11.182702,54.014917],[11.200792,53.991526],[11.217701,53.984396],[11.257086,53.986328],[11.241351,53.953025],[11.247677,53.941005],[11.267738,53.932459],[11.285361,53.930981],[11.313189,53.941636],[11.330293,53.959427],[11.35063,53.943237],[11.367589,53.934694],[11.387594,53.939215],[11.406685,53.93553],[11.403684,53.922283],[11.434274,53.910029],[11.435897,53.900117],[11.459706,53.896127],[11.46344,53.903303],[11.447395,53.905627],[11.445726,53.912116],[11.473243,53.928685],[11.481911,53.927665],[11.479851,53.93883],[11.481623,53.950583],[11.483368,53.967107],[11.473545,53.963861],[11.472589,53.968099],[11.500075,53.986656],[11.491452,53.993498],[11.508375,54.010591],[11.533437,54.019746],[11.516638,54.026729],[11.522628,54.033587],[11.541077,54.025386],[11.56286,54.028383],[11.586476,54.045956],[11.582219,54.063104],[11.612231,54.070538],[11.626043,54.088954],[11.613731,54.102058],[11.532276,54.049128],[11.534714,54.073207],[11.525146,54.072235],[11.559965,54.096447],[11.607522,54.106679],[11.663723,54.143542],[11.695541,54.154514],[11.760489,54.155251],[11.78228,54.150099],[11.81006,54.146372],[11.858951,54.146059],[11.925605,54.160334],[11.996193,54.174933],[12.059811,54.177993],[12.084853,54.183637],[12.097713,54.181577],[12.109479,54.179135],[12.13529,54.190693],[12.201716,54.245354],[12.285573,54.275222],[12.334804,54.296365],[12.36332,54.32369],[12.390542,54.358509],[12.404608,54.37643],[12.444046,54.399358],[12.511077,54.482635],[12.528811,54.482456],[12.521759,54.472687],[12.558439,54.454953],[12.627077,54.449166],[12.677061,54.442318],[12.834388,54.440053],[12.918332,54.44515],[12.913374,54.437275],[12.923026,54.424865],[12.874582,54.413832],[12.832819,54.422643],[12.80191,54.409262],[12.78753,54.416233],[12.761151,54.412766],[12.730942,54.418315],[12.681442,54.415819],[12.669434,54.421942],[12.667274,54.411033],[12.652315,54.411164],[12.635876,54.422934],[12.618522,54.418585],[12.615293,54.407763],[12.587879,54.407915],[12.575971,54.402429],[12.576213,54.396613],[12.59844,54.390585],[12.592068,54.383317],[12.578549,54.388858],[12.549124,54.389493],[12.516338,54.372993],[12.497976,54.382375],[12.445355,54.38213],[12.41919,54.370533],[12.417125,54.35702],[12.416481,54.336373],[12.391869,54.343254],[12.387402,54.338221],[12.39632,54.331954],[12.393668,54.322904],[12.380937,54.309156],[12.365024,54.310202],[12.356819,54.300542],[12.381281,54.278406],[12.363879,54.267492],[12.376304,54.26132],[12.416549,54.246956],[12.454614,54.247053],[12.454242,54.253043],[12.417413,54.258772],[12.409037,54.2792],[12.435581,54.296713],[12.477338,54.303812],[12.473159,54.329883],[12.525962,54.334415],[12.55143,54.357256],[12.534749,54.364488],[12.555534,54.375119],[12.581502,54.372974],[12.574494,54.359752],[12.583845,54.356274],[12.59831,54.362447],[12.596808,54.371219],[12.643157,54.380895],[12.669897,54.39056],[12.664023,54.404023],[12.710649,54.410149],[12.713649,54.403613],[12.68585,54.398918],[12.691233,54.383821],[12.70032,54.39556],[12.71481,54.395767],[12.719915,54.372327],[12.737232,54.371406],[12.744561,54.383853],[12.754426,54.371268],[12.767033,54.372276],[12.775049,54.392389],[12.787467,54.39324],[12.788975,54.379254],[12.802976,54.372343],[12.807847,54.349724],[12.810027,54.343846],[12.828888,54.352284],[12.851577,54.352949],[12.87973,54.366705],[12.897149,54.398277],[12.923909,54.413253],[12.989462,54.42579],[13.016091,54.436892],[13.030628,54.435543],[13.034569,54.424793],[13.022359,54.411033],[13.03037,54.39437],[13.049917,54.380582],[13.076672,54.381912],[13.093149,54.365343],[13.076214,54.345829],[13.088751,54.319975],[13.110532,54.305113],[13.106807,54.281184],[13.134434,54.268702],[13.153196,54.26979],[13.166304,54.27741],[13.181542,54.26598],[13.214694,54.24984],[13.215657,54.240788],[13.28537,54.235603],[13.318054,54.193805],[13.330054,54.183539],[13.366054,54.187238],[13.371558,54.181082],[13.3346,54.17503],[13.318031,54.160411],[13.382255,54.176056],[13.393981,54.173681],[13.393964,54.181758],[13.424871,54.173126],[13.41549,54.158136],[13.406933,54.163779],[13.379745,54.151504],[13.3888,54.143107],[13.405315,54.150155],[13.428073,54.137368],[13.439375,54.121383],[13.440198,54.111014],[13.467234,54.087355],[13.50469,54.084599],[13.493834,54.094708],[13.477438,54.11944],[13.505062,54.127463],[13.547369,54.130178],[13.57773,54.1325],[13.615549,54.137947],[13.696965,54.175806],[13.717174,54.163564],[13.695523,54.157715],[13.698512,54.149463],[13.761572,54.127866],[13.753478,54.123225],[13.802485,54.099919],[13.796972,54.091329],[13.793176,54.085051],[13.789328,54.066621],[13.773579,54.059306],[13.779318,54.053235],[13.742393,54.030817],[13.755707,54.026238],[13.766863,54.011482],[13.836492,53.980366],[13.853881,53.96391],[13.853266,53.952427],[13.876633,53.951013],[13.884412,53.944634],[13.906779,53.931525],[13.912817,53.918411],[13.863836,53.899656],[13.84855,53.879933],[13.825816,53.877793],[13.814844,53.863645],[13.807217,53.855717],[13.813365,53.847677],[13.818577,53.842215],[13.858407,53.839061],[13.898474,53.8034],[13.915939,53.806023],[13.943995,53.788022],[13.969909,53.77203],[13.988702,53.768869],[14.031766,53.75741],[14.061001,53.754806],[14.101441,53.740389],[14.138816,53.739062],[14.16511,53.742768],[14.181941,53.73617],[14.216705,53.752575],[14.230072,53.761906],[14.249137,53.758525],[14.271247,53.740195],[14.251605,53.720037],[14.230715,53.712194],[14.216045,53.70731],[14.221974,53.69827],[14.26947,53.696698],[14.283501,53.682128],[14.269518,53.664755],[14.28343,53.658595],[14.284174,53.634694],[14.316576,53.61762],[14.311845,53.574657],[14.307182,53.543175],[14.327021,53.50332],[14.35103,53.496579],[14.354188,53.48444],[14.358972,53.457222],[14.371699,53.456732],[14.370293,53.433622],[14.37414,53.408591],[14.393895,53.378484],[14.390108,53.353737],[14.404339,53.347309],[14.41228,53.328714],[14.405668,53.309619],[14.421171,53.276344],[14.444212,53.27439],[14.450128,53.262336],[14.420213,53.233027],[14.404278,53.209783],[14.37689,53.200797],[14.36705,53.170289],[14.386723,53.14312],[14.382656,53.131431],[14.364274,53.079031],[14.341978,53.050371],[14.258465,53.003305],[14.205964,52.986101],[14.145491,52.962586],[14.139308,52.951225],[14.155402,52.896023],[14.160559,52.882923],[14.126112,52.846825],[14.127446,52.830896],[14.216523,52.817217],[14.253028,52.789138],[14.281303,52.773386],[14.32642,52.760787],[14.37413,52.735608],[14.433014,52.682545],[14.498384,52.647271],[14.593418,52.611629],[14.611464,52.588896],[14.639081,52.57028],[14.616759,52.555004],[14.606488,52.525506],[14.612661,52.510389],[14.634763,52.495383],[14.611596,52.472648],[14.579075,52.441748],[14.549641,52.434556],[14.533853,52.394809],[14.55206,52.374335],[14.560962,52.329016],[14.585044,52.306346],[14.575269,52.289915],[14.601978,52.272051],[14.693737,52.255449],[14.715563,52.234701],[14.705478,52.208219],[14.684966,52.193389],[14.701883,52.180003],[14.704932,52.166796],[14.679494,52.14268],[14.682322,52.114068],[14.70033,52.098897],[14.736001,52.088938],[14.759816,52.06707],[14.745152,52.054123],[14.747233,52.031903],[14.714346,52.001853],[14.720299,51.992884],[14.705112,51.977213],[14.720562,51.950393],[14.693679,51.909575],[14.693932,51.901745],[14.663169,51.889808],[14.652405,51.874625],[14.623999,51.858508],[14.61101,51.857264],[14.604194,51.84058],[14.590724,51.838459],[14.590597,51.82103],[14.606426,51.804716],[14.644516,51.796065],[14.656454,51.741702],[14.667332,51.726696],[14.690334,51.708583],[14.737077,51.687778],[14.757718,51.661002],[14.753498,51.655503],[14.753648,51.627402],[14.76457,51.608372],[14.728621,51.58193],[14.710713,51.561791],[14.728466,51.549098],[14.729935,51.530751],[14.765445,51.519063],[14.796057,51.517409],[14.850302,51.490381],[14.919607,51.482967],[14.924979,51.474464],[14.947434,51.472058],[14.973486,51.442191],[14.971149,51.433456],[14.960027,51.432491],[14.966869,51.417629],[14.958575,51.410598],[14.968878,51.398282],[14.95812,51.395365],[14.968668,51.37983],[14.983396,51.374293],[14.965462,51.361357],[14.974318,51.359001],[14.981391,51.334827],[15.008128,51.316775],[15.013826,51.301394],[15.032364,51.294422],[15.041531,51.273812],[15.037507,51.259068],[15.023933,51.252508],[15.036547,51.243339],[15.027787,51.241587],[15.017601,51.219936],[15.003696,51.167421],[14.992294,51.161785],[14.99965,51.150189],[14.989516,51.1428],[14.995761,51.122161],[14.980739,51.116131],[14.978754,51.077763],[14.96198,51.055772],[14.929428,50.999723],[14.915782,50.995482],[14.917164,50.975068],[14.906184,50.972902],[14.891509,50.950351],[14.891853,50.936051],[14.876504,50.932412],[14.865632,50.917219],[14.818789,50.885901],[14.8244,50.867044],[14.799978,50.822598],[14.790571,50.824026],[14.763167,50.820415],[14.738985,50.828593],[14.716568,50.823354],[14.719723,50.832414],[14.708239,50.840915],[14.689124,50.838389],[14.66157,50.849997],[14.647253,50.848924],[14.619328,50.858137],[14.637419,50.898714],[14.652378,50.905362],[14.651647,50.927643],[14.647519,50.931543],[14.582437,50.91487],[14.565075,50.91829],[14.561841,50.926144],[14.593955,50.962892],[14.597806,50.986456],[14.581851,50.991721],[14.563422,51.009523],[14.533886,51.004134],[14.538926,51.010997],[14.532068,51.016885],[14.498898,51.022525],[14.506001,51.044107],[14.491067,51.043238],[14.491793,51.023309],[14.45258,51.036252],[14.420459,51.019082],[14.408416,51.018902],[14.383484,51.028565],[14.382621,51.038379],[14.36114,51.04521],[14.337871,51.039168],[14.318052,51.053919],[14.301471,51.055316],[14.288324,51.039302],[14.273431,51.040317],[14.284637,51.031251],[14.276627,51.019231],[14.282153,51.015529],[14.260476,51.008537],[14.266991,50.999966],[14.25837,50.987848],[14.287243,50.977317],[14.323185,50.984854],[14.329375,50.974596],[14.302609,50.965266],[14.317126,50.960493],[14.312256,50.953661],[14.372855,50.93782],[14.387809,50.94152],[14.399506,50.93273],[14.401198,50.923682],[14.385915,50.916337],[14.386376,50.90022],[14.370195,50.896859],[14.349498,50.900854],[14.349249,50.892519],[14.313712,50.887146],[14.289007,50.886418],[14.268464,50.895843],[14.25283,50.888358],[14.230761,50.887925],[14.23485,50.876064],[14.222346,50.858618],[14.149633,50.842369],[14.127257,50.834203],[14.089447,50.825942],[14.078614,50.812494],[14.039698,50.810248],[14.028836,50.804426],[13.990826,50.819809],[13.954048,50.807273],[13.955913,50.800416],[13.937272,50.789912],[13.902555,50.79378],[13.897437,50.788886],[13.88799,50.770365],[13.90114,50.754568],[13.899206,50.745762],[13.880962,50.737712],[13.861618,50.742662],[13.854234,50.727042],[13.826366,50.724072],[13.806069,50.73339],[13.758417,50.735668],[13.740789,50.727274],[13.727908,50.733479],[13.708697,50.724871],[13.706946,50.717553],[13.688115,50.719136],[13.663921,50.731372],[13.652834,50.730477],[13.625913,50.723426],[13.626419,50.715956],[13.599781,50.710206],[13.556366,50.714513],[13.539937,50.707994],[13.525586,50.702696],[13.539797,50.689671],[13.53996,50.668009],[13.529586,50.6682],[13.512883,50.654183],[13.524699,50.647109],[13.523521,50.638867],[13.501131,50.633102],[13.464157,50.603098],[13.428976,50.611355],[13.413565,50.616812],[13.391203,50.644747],[13.373516,50.648673],[13.377592,50.627231],[13.369379,50.618197],[13.321268,50.601247],[13.324704,50.582227],[13.291235,50.574974],[13.282973,50.590127],[13.250024,50.593456],[13.225381,50.564663],[13.227996,50.549366],[13.207632,50.521494],[13.194747,50.515277],[13.19625,50.504095],[13.175467,50.503571],[13.13654,50.506224],[13.131445,50.518063],[13.103009,50.503412],[13.061083,50.500963],[13.044665,50.510498],[13.031661,50.508314],[13.023996,50.453302],[12.985064,50.420013],[12.943746,50.412093],[12.947744,50.404455],[12.894219,50.430185],[12.819413,50.459309],[12.809412,50.433291],[12.794884,50.449367],[12.754276,50.438011],[12.7343,50.43242],[12.730633,50.422571],[12.707882,50.408293],[12.706852,50.397465],[12.673527,50.416805],[12.666141,50.413973],[12.64668,50.410441],[12.621725,50.41554],[12.601415,50.405867],[12.583443,50.407139],[12.553545,50.398532],[12.517157,50.397377],[12.488128,50.373066],[12.488936,50.349254],[12.463598,50.351184],[12.438164,50.334776],[12.43126,50.322804],[12.400555,50.321732],[12.399339,50.292303],[12.371231,50.284277],[12.351575,50.253086],[12.360003,50.241843],[12.348744,50.236382],[12.333635,50.242268],[12.328707,50.234607],[12.334295,50.220252],[12.326276,50.21894],[12.324212,50.208011],[12.337695,50.192315],[12.326546,50.18136],[12.336197,50.172548],[12.322191,50.171656],[12.29343,50.175548],[12.290137,50.185914],[12.277524,50.191186],[12.276751,50.199334],[12.287741,50.20333],[12.283258,50.213997],[12.29353,50.221726],[12.239778,50.246125],[12.250459,50.255574],[12.265541,50.25123],[12.265717,50.258536],[12.254822,50.270205],[12.200733,50.273341],[12.196428,50.295781],[12.201542,50.307496],[12.175291,50.322819],[12.126166,50.316187],[12.105916,50.322488],[12.100035,50.317136],[12.125682,50.306402],[12.119215,50.299081],[12.139481,50.276627],[12.097697,50.262253],[12.102382,50.256533],[12.091414,50.252231],[12.107401,50.245637],[12.109182,50.238178],[12.146072,50.233045],[12.161496,50.22035],[12.159902,50.211302],[12.175388,50.212775],[12.178183,50.204728],[12.196799,50.19909],[12.189561,50.19437],[12.215158,50.168465],[12.195309,50.142784],[12.197049,50.127451],[12.200339,50.109507],[12.211298,50.102585],[12.228297,50.102545],[12.232879,50.093111],[12.246255,50.097382],[12.257038,50.08385],[12.275525,50.07618],[12.260848,50.058345],[12.300364,50.058251],[12.31763,50.052442],[12.326656,50.033164],[12.338656,50.040667],[12.367973,50.017952],[12.400765,50.014812],[12.397795,50.00787],[12.42427,50.000897],[12.433842,50.000051],[12.435383,49.994012],[12.425926,49.991157],[12.433215,49.985022],[12.464283,49.994022],[12.47661,49.980957],[12.489817,49.981681],[12.499119,49.971915],[12.490679,49.959012],[12.470928,49.949023],[12.477145,49.936664],[12.541853,49.923707],[12.551084,49.908591],[12.548505,49.89889],[12.522014,49.881814],[12.512503,49.859509],[12.497805,49.856933],[12.498221,49.837623],[12.487141,49.841484],[12.473254,49.833619],[12.472509,49.814642],[12.464155,49.810044],[12.473694,49.788558],[12.401822,49.758205],[12.403524,49.744054],[12.413818,49.732453],[12.425849,49.730575],[12.442254,49.703973],[12.482178,49.694551],[12.485012,49.687967],[12.521924,49.686613],[12.529835,49.66651],[12.517681,49.646009],[12.528399,49.639581],[12.523731,49.628712],[12.534113,49.626458],[12.532352,49.618321],[12.560759,49.619728],[12.564259,49.596211],[12.575983,49.586897],[12.574466,49.559602],[12.593165,49.542716],[12.589439,49.537826],[12.606794,49.530925],[12.620761,49.52691],[12.636499,49.531321],[12.641115,49.526703],[12.644058,49.484707],[12.633621,49.476032],[12.648509,49.468391],[12.65714,49.444774],[12.655491,49.434803],[12.708771,49.424701],[12.715901,49.414088],[12.758309,49.394292],[12.758296,49.37496],[12.781952,49.3594],[12.778846,49.34797],[12.78628,49.345361],[12.813872,49.340991],[12.847277,49.344536],[12.87591,49.332399],[12.888849,49.333147],[12.880126,49.350307],[12.919508,49.343447],[12.94252,49.343968],[12.972463,49.33399],[13.007291,49.306496],[13.029168,49.304242],[13.02555,49.279122],[13.033337,49.26504],[13.055978,49.263798],[13.058524,49.251673],[13.08092,49.247374],[13.094242,49.225091],[13.113266,49.219366],[13.110141,49.203292],[13.17121,49.173043],[13.177202,49.164259],[13.170799,49.144079],[13.205407,49.122331],[13.236077,49.113678],[13.2823,49.120519],[13.336223,49.093539],[13.376631,49.057853],[13.397789,49.050493],[13.391695,49.04317],[13.405583,49.024565],[13.400288,49.016385],[13.409286,49.003081],[13.403108,48.987688],[13.417334,48.980009],[13.433129,48.971826],[13.461703,48.960478],[13.492204,48.943542],[13.508662,48.941858],[13.508342,48.948187],[13.507767,48.969012],[13.529014,48.973821],[13.544417,48.968046],[13.580482,48.970801],[13.592433,48.960965],[13.590543,48.952771],[13.610481,48.938885],[13.611414,48.944468],[13.628711,48.948845],[13.622597,48.938601],[13.645074,48.911397],[13.655415,48.893657],[13.669054,48.890327],[13.671301,48.880019],[13.705999,48.880848],[13.723898,48.880798],[13.737653,48.88607],[13.765073,48.833892],[13.792971,48.82975],[13.795367,48.820506],[13.815605,48.79691],[13.805032,48.781111],[13.813617,48.773978],[13.839424,48.77136],[13.827074,48.758097],[13.817706,48.731555],[13.795464,48.713997],[13.816449,48.700166],[13.836901,48.699553],[13.833988,48.69216],[13.814107,48.693134],[13.817773,48.660634],[13.825215,48.619924],[13.80195,48.595371],[13.80334,48.575626],[13.76779,48.55361],[13.755205,48.564927],[13.743712,48.54423],[13.748103,48.531194],[13.734388,48.525656],[13.72685,48.512681],[13.66391,48.534552],[13.65506,48.545659],[13.59754,48.569027],[13.570785,48.561712],[13.513147,48.590678],[13.501821,48.581887],[13.506772,48.57485],[13.492779,48.565393],[13.464673,48.553163],[13.449384,48.564181],[13.437655,48.556961],[13.438893,48.548703],[13.449995,48.53677],[13.444915,48.526663],[13.456865,48.512669],[13.447123,48.494436],[13.426115,48.457452],[13.439274,48.434073],[13.422992,48.407202],[13.413165,48.378177],[13.398887,48.369009],[13.322639,48.320212],[13.263196,48.295448],[13.213066,48.294699],[13.177034,48.294319],[13.130437,48.279419],[13.098563,48.278069],[13.082104,48.277307],[13.012808,48.252954],[12.958139,48.210014],[12.933453,48.206895],[12.870664,48.201729],[12.854072,48.178833],[12.832109,48.155073],[12.799976,48.14628],[12.785594,48.123097],[12.76125,48.128553],[12.751443,48.112723],[12.758955,48.075938],[12.80766,48.043428],[12.85316,48.012659],[12.875816,47.96241],[12.915507,47.955363],[12.922308,47.939538],[12.937498,47.943329],[12.965945,47.90024],[12.987696,47.868469],[13.003361,47.843179],[12.978714,47.819106],[12.939633,47.779833],[12.928074,47.770173],[12.941265,47.771263],[12.944732,47.764478],[12.935507,47.747996],[12.914208,47.738255],[12.905226,47.724553],[12.930025,47.709598],[12.99358,47.708354],[13.017576,47.722716],[13.048304,47.709452],[13.07996,47.686952],[13.076683,47.672822],[13.088408,47.649516],[13.097081,47.629618],[13.060558,47.602162],[13.071799,47.588581],[13.04383,47.583243],[13.055659,47.55744],[13.031254,47.534852],[13.04593,47.52382],[13.047249,47.492017],[13.027228,47.486669],[13.00677,47.464391],[12.97658,47.484844],[12.966854,47.474557],[12.908707,47.496918],[12.88036,47.521878],[12.852575,47.530404],[12.847679,47.54564],[12.808144,47.548025],[12.784057,47.568824],[12.779591,47.578914],[12.795085,47.592792],[12.79246,47.600435],[12.807405,47.610268],[12.824243,47.612139],[12.799841,47.626943],[12.780846,47.632935],[12.758568,47.651956],[12.778202,47.660555],[12.780283,47.671383],[12.757583,47.665047],[12.733432,47.679113],[12.715176,47.676313],[12.702833,47.68165],[12.66684,47.680846],[12.648028,47.670341],[12.630629,47.675843],[12.60504,47.673212],[12.574969,47.632357],[12.536249,47.636406],[12.498283,47.625271],[12.441022,47.673807],[12.442363,47.689577],[12.440381,47.695546],[12.412124,47.693858],[12.363893,47.684054],[12.356928,47.690367],[12.339762,47.690236],[12.337543,47.696835],[12.28477,47.69],[12.255816,47.679145],[12.241317,47.694183],[12.264435,47.732535],[12.257183,47.742954],[12.226291,47.718467],[12.184682,47.70053],[12.16404,47.700847],[12.166894,47.689908],[12.203903,47.631109],[12.206998,47.609552],[12.180927,47.60266],[12.176111,47.614715],[12.128374,47.606057],[12.115015,47.611308],[12.083449,47.60966],[12.060811,47.618822],[12.022093,47.611174],[12.008436,47.624927],[11.976335,47.613917],[11.932631,47.612947],[11.89388,47.6084],[11.854905,47.602161],[11.843885,47.581349],[11.781074,47.591176],[11.663663,47.583707],[11.630566,47.592558],[11.631996,47.580672],[11.621611,47.585444],[11.60689,47.582288],[11.588091,47.557765],[11.588353,47.52543],[11.571508,47.514491],[11.518497,47.510805],[11.505899,47.504938],[11.448909,47.507321],[11.441498,47.517952],[11.410572,47.495088],[11.384789,47.472865],[11.391357,47.466683],[11.40939,47.466623],[11.420864,47.445043],[11.336615,47.449059],[11.329465,47.438027],[11.291102,47.426454],[11.289551,47.407885],[11.269828,47.397371],[11.222688,47.396825],[11.252858,47.427625],[11.249946,47.432074],[11.207254,47.433736],[11.162102,47.421874],[11.127502,47.411694],[11.114746,47.395802],[11.029807,47.393745],[10.970555,47.400147],[10.971851,47.417186],[10.984665,47.42107],[10.983641,47.430122],[10.932879,47.468359],[10.927563,47.472648],[10.935062,47.481639],[10.908408,47.484744],[10.881814,47.47892],[10.869507,47.483194],[10.871183,47.499891],[10.918197,47.517205],[10.904913,47.517965],[10.885367,47.537264],[10.853275,47.534175],[10.839021,47.525729],[10.813129,47.52605],[10.812611,47.520033],[10.795935,47.521354],[10.777565,47.514367],[10.7642,47.519872],[10.758213,47.534362],[10.718534,47.538312],[10.694994,47.544818],[10.692138,47.551088],[10.690431,47.559211],[10.635489,47.559213],[10.59821,47.569694],[10.580276,47.555269],[10.573647,47.533898],[10.488954,47.540387],[10.452861,47.555279]],[[10.452861,47.555279],[10.481701,47.583952],[10.472282,47.586663],[10.435576,47.58352],[10.4303,47.576293],[10.452861,47.555279]]]}},{"id":null,"type":"Feature","properties":{"warnLevel":0},"geometry":{"type":"Polygon","coordinates":[[[13.969129,54.06989],[14.025423,54.047142],[14.047973,54.031849],[14.112837,53.995556],[14.177477,53.951568],[14.226317,53.928625],[14.207646,53.915867],[14.190057,53.9141],[14.204197,53.907231],[14.213704,53.889469],[14.214244,53.866058],[14.187484,53.872962],[14.151235,53.871383],[14.132855,53.87162],[14.038121,53.874424],[13.984307,53.849189],[13.944669,53.84417],[13.928036,53.84542],[13.930076,53.850233],[13.952616,53.852636],[13.952784,53.862093],[13.929186,53.873052],[13.914268,53.845664],[13.899309,53.840573],[13.826237,53.850706],[13.823101,53.856692],[13.833831,53.868275],[13.896493,53.878805],[13.923816,53.890628],[13.937796,53.91356],[13.921675,53.949406],[13.895729,53.96516],[13.900087,53.982404],[13.909208,53.990913],[13.944646,53.994453],[13.963912,53.989971],[13.964045,53.972937],[13.971893,53.969814],[13.950605,53.95894],[13.95847,53.93483],[13.970049,53.950784],[13.964803,53.957827],[13.984704,53.958998],[14.024457,53.962197],[14.010974,53.950114],[14.039511,53.940835],[14.037062,53.951135],[14.047751,53.982965],[14.042912,54.005116],[14.029054,54.018051],[14.015757,54.020352],[14.018142,54.014188],[14.004642,54.010945],[13.998262,54.035518],[13.969705,54.062061],[13.951373,54.059311],[13.924894,54.063164],[13.915999,54.062006],[13.910783,54.046539],[13.93477,54.028084],[13.925023,54.016267],[13.916494,54.020781],[13.919983,54.028722],[13.911432,54.029697],[13.898477,54.012821],[13.855029,54.001589],[13.853012,54.013772],[13.866798,54.034575],[13.878297,54.035783],[13.874196,54.043462],[13.859761,54.047613],[13.848249,54.046717],[13.810319,54.030899],[13.798257,54.018019],[13.772243,54.01914],[13.767047,54.031232],[13.77496,54.038431],[13.783711,54.037672],[13.791963,54.049942],[13.800309,54.06313],[13.813269,54.100225],[13.810165,54.109434],[13.792524,54.113301],[13.774916,54.132807],[13.755357,54.138607],[13.749112,54.158281],[13.759342,54.167589],[13.788522,54.174368],[13.813239,54.169015],[13.837937,54.126278],[13.863276,54.106747],[13.900529,54.087696],[13.936406,54.075593],[13.969129,54.06989]]]}},{"id":null,"type":"Feature","properties":{"warnLevel":0},"geometry":{"type":"Polygon","coordinates":[[[13.392634,54.539647],[13.356012,54.548452],[13.373401,54.560365],[13.392634,54.539647]]]}},{"id":null,"type":"Feature","properties":{"warnLevel":0},"geometry":{"type":"Polygon","coordinates":[[[13.392634,54.539647],[13.414546,54.518746],[13.406445,54.506113],[13.417415,54.491257],[13.442559,54.485988],[13.450108,54.471725],[13.480752,54.484032],[13.49905,54.481352],[13.471537,54.458203],[13.474711,54.451507],[13.505742,54.452272],[13.512967,54.443213],[13.503988,54.435637],[13.48853,54.434718],[13.4927,54.44421],[13.479257,54.442916],[13.4752,54.426374],[13.534521,54.416477],[13.541539,54.426363],[13.520471,54.433321],[13.546692,54.434384],[13.556033,54.437936],[13.553176,54.445651],[13.524346,54.448484],[13.546578,54.456916],[13.547909,54.473452],[13.527045,54.479471],[13.503207,54.479025],[13.500455,54.493025],[13.512488,54.509171],[13.507486,54.535588],[13.499083,54.556548],[13.510247,54.558483],[13.510045,54.566142],[13.485036,54.562957],[13.487685,54.551376],[13.447685,54.551216],[13.42485,54.568914],[13.407115,54.572745],[13.396705,54.572454],[13.384469,54.581528],[13.371322,54.612639],[13.354745,54.61232],[13.349186,54.60155],[13.328145,54.593398],[13.334316,54.582904],[13.30695,54.574511],[13.242444,54.559095],[13.257491,54.592038],[13.283893,54.619822],[13.285244,54.642349],[13.262807,54.642607],[13.22934,54.625655],[13.237515,54.596396],[13.226763,54.587288],[13.175307,54.560345],[13.1621,54.557974],[13.160612,54.564858],[13.222271,54.603184],[13.21842,54.639046],[13.274903,54.669035],[13.302351,54.673829],[13.367218,54.681915],[13.428321,54.684671],[13.437691,54.677799],[13.427127,54.659181],[13.382952,54.645391],[13.377287,54.625472],[13.394425,54.597442],[13.422777,54.57816],[13.462061,54.570213],[13.54695,54.580028],[13.642914,54.582288],[13.678784,54.563424],[13.67824,54.532009],[13.667411,54.520349],[13.607578,54.497828],[13.599214,54.483758],[13.573811,54.477256],[13.573902,54.447008],[13.606894,54.407651],[13.626093,54.398855],[13.665808,54.402769],[13.67682,54.398592],[13.703725,54.381267],[13.714948,54.364557],[13.726575,54.355719],[13.766878,54.340838],[13.74018,54.33539],[13.731238,54.323641],[13.715816,54.301253],[13.723165,54.273221],[13.709731,54.268748],[13.686718,54.280604],[13.689177,54.285969],[13.708619,54.281206],[13.700355,54.295653],[13.656315,54.288257],[13.647099,54.29876],[13.698848,54.316273],[13.702885,54.325678],[13.620129,54.319312],[13.676713,54.339391],[13.684355,54.34885],[13.651538,54.348823],[13.613297,54.330373],[13.591468,54.350859],[13.573496,54.352838],[13.551498,54.339868],[13.504149,54.341607],[13.463436,54.329115],[13.459674,54.316021],[13.416927,54.300576],[13.389714,54.271609],[13.374404,54.279496],[13.370857,54.271903],[13.352052,54.268477],[13.35944,54.249724],[13.368773,54.261459],[13.379945,54.254001],[13.398862,54.264809],[13.417542,54.254849],[13.423693,54.237632],[13.39263,54.22445],[13.32161,54.238055],[13.295502,54.248392],[13.298634,54.253402],[13.323265,54.247695],[13.3345,54.276795],[13.310579,54.266707],[13.315198,54.258933],[13.287651,54.261116],[13.271434,54.253595],[13.227836,54.268352],[13.2172,54.273656],[13.199912,54.270223],[13.196061,54.284547],[13.203348,54.289548],[13.195472,54.296456],[13.181681,54.287892],[13.167228,54.289601],[13.140405,54.282207],[13.140295,54.295678],[13.155731,54.304364],[13.17601,54.296699],[13.184761,54.300998],[13.17134,54.309056],[13.136996,54.316259],[13.115163,54.332231],[13.122856,54.364817],[13.129842,54.372128],[13.154605,54.375184],[13.234947,54.369826],[13.237306,54.377851],[13.26182,54.38259],[13.237599,54.387392],[13.229735,54.398129],[13.238475,54.404104],[13.236323,54.411222],[13.22008,54.414197],[13.210478,54.430179],[13.15088,54.421996],[13.171048,54.449369],[13.190336,54.453315],[13.200082,54.448881],[13.205813,54.459763],[13.252318,54.463841],[13.236007,54.468195],[13.258773,54.476258],[13.253694,54.486189],[13.231031,54.485472],[13.227464,54.510878],[13.199947,54.503438],[13.170006,54.506917],[13.161561,54.501317],[13.152761,54.505808],[13.15511,54.512346],[13.164076,54.512907],[13.157226,54.538262],[13.139624,54.540634],[13.143352,54.546214],[13.212673,54.550279],[13.242278,54.554832],[13.286707,54.542731],[13.29524,54.536183],[13.287244,54.523002],[13.302674,54.514334],[13.312038,54.523136],[13.302869,54.527669],[13.307049,54.538634],[13.29735,54.552377],[13.355964,54.580998],[13.370295,54.577952],[13.342183,54.547463],[13.358459,54.537845],[13.343957,54.523795],[13.349544,54.518414],[13.373794,54.521785],[13.392634,54.539647]]]}},{"id":null,"type":"Feature","properties":{"warnLevel":0},"geometry":{"type":"Polygon","coordinates":[[[13.545899,54.324233],[13.523588,54.30994],[13.517547,54.316092],[13.540912,54.332836],[13.545899,54.324233]]]}},{"id":null,"type":"Feature","properties":{"warnLevel":0},"geometry":{"type":"Polygon","coordinates":[[[13.186714,54.493525],[13.200486,54.485317],[13.218729,54.485681],[13.223918,54.471204],[13.187899,54.465473],[13.186065,54.457959],[13.163159,54.457002],[13.159535,54.450235],[13.121309,54.442512],[13.157563,54.487791],[13.186714,54.493525]]]}},{"id":null,"type":"Feature","properties":{"warnLevel":0},"geometry":{"type":"Polygon","coordinates":[[[13.148189,54.598073],[13.157959,54.573393],[13.144356,54.57393],[13.133752,54.591527],[13.12513,54.584336],[13.111172,54.583403],[13.118775,54.574767],[13.109972,54.568078],[13.116236,54.549219],[13.124699,54.549211],[13.12521,54.543571],[13.095822,54.526741],[13.071936,54.46363],[13.059477,54.464106],[13.064507,54.490003],[13.098223,54.557901],[13.098507,54.590516],[13.127206,54.604752],[13.144415,54.603577],[13.148189,54.598073]]]}},{"id":null,"type":"Feature","properties":{"warnLevel":0},"geometry":{"type":"Polygon","coordinates":[[[12.979914,54.433353],[12.929942,54.43216],[12.926416,54.437876],[12.931514,54.443504],[13.039359,54.450973],[13.047701,54.459884],[13.058677,54.451604],[13.046503,54.44445],[13.007802,54.442557],[12.979914,54.433353]]]}},{"id":null,"type":"Feature","properties":{"warnLevel":0},"geometry":{"type":"Polygon","coordinates":[[[11.522549,54.067859],[11.516677,54.038442],[11.509703,54.039002],[11.510613,54.057149],[11.522549,54.067859]]]}},{"id":null,"type":"Feature","properties":{"warnLevel":0},"geometry":{"type":"Polygon","coordinates":[[[11.499807,54.029826],[11.492616,54.023307],[11.49641,54.016366],[11.48891,53.999007],[11.481552,54.008011],[11.480409,53.982447],[11.454235,53.957255],[11.44162,53.964115],[11.44604,53.997021],[11.429032,53.98593],[11.428564,53.960548],[11.394352,53.974587],[11.388742,53.968491],[11.406166,53.965652],[11.383198,53.969339],[11.376224,53.995151],[11.401174,54.008096],[11.457005,54.024014],[11.483588,54.02395],[11.493549,54.032198],[11.499807,54.029826]]]}},{"id":null,"type":"Feature","properties":{"warnLevel":0},"geometry":{"type":"Polygon","coordinates":[[[11.232679,54.499638],[11.296931,54.432294],[11.31233,54.402208],[11.246468,54.412123],[11.197825,54.409726],[11.210241,54.41777],[11.174482,54.420149],[11.167404,54.413581],[11.181153,54.40474],[11.174799,54.401224],[11.119164,54.402991],[11.09417,54.410313],[11.100721,54.435464],[11.085693,54.448103],[11.064254,54.45198],[11.024782,54.444385],[11.021103,54.437505],[11.007234,54.442841],[11.014648,54.491962],[11.03655,54.518173],[11.065219,54.535625],[11.171651,54.520597],[11.232679,54.499638]]]}},{"id":null,"type":"Feature","properties":{"warnLevel":0},"geometry":{"type":"Polygon","coordinates":[[[8.832024,54.552093],[8.822621,54.54255],[8.789096,54.551762],[8.812972,54.554202],[8.832024,54.552093]]]}},{"id":null,"type":"Feature","properties":{"warnLevel":0},"geometry":{"type":"Polygon","coordinates":[[[8.735987,54.632699],[8.715903,54.628531],[8.715114,54.639248],[8.73649,54.644099],[8.735987,54.632699]]]}},{"id":null,"type":"Feature","properties":{"warnLevel":0},"geometry":{"type":"Polygon","coordinates":[[[8.703102,47.714647],[8.717316,47.692084],[8.708366,47.689676],[8.690948,47.695226],[8.666535,47.685403],[8.660309,47.691482],[8.675966,47.698429],[8.664939,47.712896],[8.685024,47.708531],[8.703102,47.714647]]]}},{"id":null,"type":"Feature","properties":{"warnLevel":0},"geometry":{"type":"Polygon","coordinates":[[[8.706789,54.671594],[8.686852,54.670898],[8.681255,54.675719],[8.697935,54.680599],[8.713057,54.677626],[8.706789,54.671594]]]}},{"id":null,"type":"Feature","properties":{"warnLevel":0},"geometry":{"type":"Polygon","coordinates":[[[8.669679,54.494059],[8.624575,54.488634],[8.587974,54.513556],[8.589888,54.532226],[8.632787,54.537734],[8.642841,54.546574],[8.705088,54.557538],[8.696569,54.515224],[8.669679,54.494059]]]}},{"id":null,"type":"Feature","properties":{"warnLevel":0},"geometry":{"type":"Polygon","coordinates":[[[8.704575,54.047894],[8.687869,54.045811],[8.677237,54.053931],[8.679921,54.06272],[8.690563,54.070098],[8.702911,54.068479],[8.686926,54.061034],[8.700288,54.058092],[8.685568,54.052264],[8.704575,54.047894]]]}},{"id":null,"type":"Feature","properties":{"warnLevel":0},"geometry":{"type":"Polygon","coordinates":[[[8.584156,54.633601],[8.548782,54.617556],[8.528676,54.626115],[8.540305,54.636055],[8.643343,54.652348],[8.659212,54.645936],[8.632264,54.636986],[8.584156,54.633601]]]}},{"id":null,"type":"Feature","properties":{"warnLevel":0},"geometry":{"type":"Polygon","coordinates":[[[8.583862,54.711767],[8.566784,54.679835],[8.525089,54.680522],[8.470527,54.682596],[8.45354,54.692361],[8.446001,54.69253],[8.425206,54.694936],[8.396664,54.705087],[8.403628,54.730233],[8.43741,54.748256],[8.505597,54.751993],[8.538394,54.755636],[8.585019,54.744992],[8.583586,54.728573],[8.597494,54.718993],[8.583862,54.711767]]]}},{"id":null,"type":"Feature","properties":{"warnLevel":0},"geometry":{"type":"Polygon","coordinates":[[[8.515234,54.57943],[8.530731,54.575569],[8.556204,54.578585],[8.572875,54.559221],[8.546274,54.557457],[8.508646,54.574523],[8.515234,54.57943]]]}},{"id":null,"type":"Feature","properties":{"warnLevel":0},"geometry":{"type":"Polygon","coordinates":[[[8.518481,53.921202],[8.500589,53.91255],[8.486716,53.914758],[8.497041,53.931865],[8.518481,53.921202]]]}},{"id":null,"type":"Feature","properties":{"warnLevel":0},"geometry":{"type":"Polygon","coordinates":[[[8.373082,54.89684],[8.426843,54.878086],[8.491279,54.876823],[8.454667,54.856679],[8.41275,54.845622],[8.374178,54.859473],[8.362808,54.874811],[8.339913,54.87903],[8.332505,54.863151],[8.306199,54.856947],[8.295239,54.841497],[8.293642,54.793811],[8.300973,54.774392],[8.293461,54.739311],[8.276512,54.752743],[8.279655,54.796224],[8.287158,54.8837],[8.309028,54.933509],[8.320874,54.952596],[8.350541,54.992405],[8.393702,55.051255],[8.407326,55.05706],[8.428824,55.055427],[8.463614,55.044893],[8.396217,55.043776],[8.40087,55.035058],[8.425465,55.03344],[8.440497,55.023156],[8.439114,55.015972],[8.395027,55.003067],[8.371404,54.988686],[8.353391,54.968854],[8.362966,54.943623],[8.362168,54.928558],[8.373082,54.89684]]]}},{"id":null,"type":"Feature","properties":{"warnLevel":0},"geometry":{"type":"Polygon","coordinates":[[[8.459304,53.957267],[8.43256,53.944902],[8.420337,53.947277],[8.438029,53.954823],[8.438006,53.963952],[8.459304,53.957267]]]}},{"id":null,"type":"Feature","properties":{"warnLevel":0},"geometry":{"type":"Polygon","coordinates":[[[8.401032,54.618085],[8.382261,54.609727],[8.357761,54.611182],[8.336451,54.627207],[8.292805,54.667328],[8.307366,54.683886],[8.356166,54.711574],[8.339413,54.695192],[8.350529,54.67552],[8.360922,54.649963],[8.382274,54.639996],[8.379923,54.632809],[8.401948,54.62619],[8.386625,54.623421],[8.401032,54.618085]]]}},{"id":null,"type":"Feature","properties":{"warnLevel":0},"geometry":{"type":"Polygon","coordinates":[[[7.934358,53.789841],[7.973737,53.782001],[7.978262,53.77784],[7.96936,53.7753],[7.946882,53.782094],[7.912813,53.780047],[7.874899,53.787845],[7.867558,53.773693],[7.846123,53.786994],[7.868256,53.795274],[7.934358,53.789841]]]}},{"id":null,"type":"Feature","properties":{"warnLevel":0},"geometry":{"type":"Polygon","coordinates":[[[7.919221,54.189534],[7.917959,54.181188],[7.909102,54.180256],[7.889149,54.172252],[7.869404,54.18791],[7.901788,54.187188],[7.919221,54.189534]]]}},{"id":null,"type":"Feature","properties":{"warnLevel":0},"geometry":{"type":"Polygon","coordinates":[[[7.81399,53.774842],[7.756713,53.760162],[7.695724,53.762942],[7.683814,53.752126],[7.668771,53.753906],[7.670538,53.766875],[7.685665,53.777486],[7.74407,53.781227],[7.814697,53.781371],[7.81399,53.774842]]]}},{"id":null,"type":"Feature","properties":{"warnLevel":0},"geometry":{"type":"Polygon","coordinates":[[[7.513353,53.742922],[7.500393,53.721985],[7.464725,53.723317],[7.464855,53.740836],[7.485889,53.755781],[7.590616,53.758831],[7.62447,53.754873],[7.631183,53.748771],[7.513353,53.742922]]]}},{"id":null,"type":"Feature","properties":{"warnLevel":0},"geometry":{"type":"Polygon","coordinates":[[[7.430946,53.732204],[7.428475,53.720188],[7.368306,53.721523],[7.363001,53.727292],[7.382707,53.73504],[7.430946,53.732204]]]}},{"id":null,"type":"Feature","properties":{"warnLevel":0},"geometry":{"type":"Polygon","coordinates":[[[7.341087,53.726011],[7.346203,53.718062],[7.270835,53.704611],[7.205668,53.706114],[7.194395,53.698655],[7.170308,53.704322],[7.152508,53.697242],[7.137838,53.705883],[7.143179,53.711721],[7.187707,53.723262],[7.234037,53.722784],[7.341087,53.726011]]]}},{"id":null,"type":"Feature","properties":{"warnLevel":0},"geometry":{"type":"Polygon","coordinates":[[[7.097156,53.679364],[6.851934,53.662652],[6.867998,53.671095],[7.026979,53.685167],[7.084589,53.687411],[7.097156,53.679364]]]}},{"id":null,"type":"Feature","properties":{"warnLevel":0},"geometry":{"type":"Polygon","coordinates":[[[6.906972,53.641711],[6.891767,53.625489],[6.875511,53.62953],[6.865194,53.64111],[6.898536,53.653871],[6.906972,53.641711]]]}},{"id":null,"type":"Feature","properties":{"warnLevel":0},"geometry":{"type":"Polygon","coordinates":[[[6.875252,53.593227],[6.865479,53.584722],[6.852693,53.589967],[6.863725,53.596728],[6.875252,53.593227]]]}},{"id":null,"type":"Feature","properties":{"warnLevel":0},"geometry":{"type":"Polygon","coordinates":[[[6.719525,53.584279],[6.758352,53.568043],[6.748593,53.557769],[6.740508,53.556722],[6.742922,53.563796],[6.732102,53.568342],[6.707378,53.568347],[6.716775,53.558913],[6.664979,53.577787],[6.656202,53.58559],[6.658253,53.599096],[6.757171,53.618198],[6.812073,53.604443],[6.783837,53.59634],[6.754166,53.5963],[6.719525,53.584279]]]}}]}